GLOBALSTAR M001         
1 25162U 98008A   25145.98492137 -.00000095  00000+0  15072-4 0  9994
2 25162  52.0055  37.8444 0001020 177.5000 195.5226 12.38213475240965
GLOBALSTAR M004         
1 25163U 98008B   25145.99728279 -.00000100  00000+0  23953-4 0  9999
2 25163  51.9982 121.8461 0002873 244.9689 156.5550 12.63396314258884
GLOBALSTAR M002         
1 25164U 98008C   25145.70432785 -.00000081  00000+0 -91073-4 0  9990
2 25164  52.0024 296.5762 0002181 111.2649 248.8404 11.61509955181457
GLOBALSTAR M003         
1 25165U 98008D   25145.96169039 -.00000115  00000+0 -27056-3 0  9995
2 25165  51.9985 230.0794 0007878 246.0372 285.4640 12.12076019230527
GLOBALSTAR M014         
1 25306U 98023A   25145.47052515 -.00000052  00000+0  47928-3 0  9994
2 25306  51.9823 220.8656 0000708 294.8634  78.1214 11.65480818188525
GLOBALSTAR M006         
1 25307U 98023B   25145.59183042 -.00000049  00000+0  54454-3 0  9996
2 25307  51.9942 272.1865 0003528  74.5436 298.4462 11.58176071214219
GLOBALSTAR M015         
1 25308U 98023C   25145.59739448 -.00000088  00000+0 -32779-3 0  9994
2 25308  51.9851   9.6074 0013093  37.5657   3.4475 11.48858838191855
GLOBALSTAR M008         
1 25309U 98023D   25145.85471630 -.00000100  00000+0 -27401-4 0  9992
2 25309  51.9974 262.8025 0003252 129.6173  20.3827 12.36069108235088
